{
  "norad_id": 55958,
  "name": "STARLINK-5928",
  "history": [
    {
      "epoch": "2026-03-28T18:54:58.914432Z",
      "apogee_km": 574.1317022057638,
      "perigee_km": 569.9497802588648,
      "latitude_deg": 6.573906375629996e-05,
      "longitude_deg": 106.36314360215914,
      "height_km": 574.4376206280407,
      "semi_major_axis_km": 6950.1777412323145,
      "eccentricity": 0.00030085,
      "inclination_deg": 70.0007,
      "raan_deg": 216.3122,
      "arg_perigee_deg": 270.8393,
      "mean_anomaly_deg": 89.2422,
      "mean_motion_rev_day": 14.98334899
    },
    {
      "epoch": "2026-03-29T01:19:31.371744Z",
      "apogee_km": 574.1374482747842,
      "perigee_km": 569.964555398481,
      "latitude_deg": -6.87538814286309e-06,
      "longitude_deg": 9.291369532392363,
      "height_km": 574.438257247816,
      "semi_major_axis_km": 6950.188001836632,
      "eccentricity": 0.0003002,
      "inclination_deg": 70.0007,
      "raan_deg": 215.6389,
      "arg_perigee_deg": 271.1053,
      "mean_anomaly_deg": 88.9762,
      "mean_motion_rev_day": 14.98331581
    },
    {
      "epoch": "2026-03-30T01:21:32.463072Z",
      "apogee_km": 574.1200285631767,
      "perigee_km": 569.98494382647,
      "latitude_deg": -1.5586172262377898e-05,
      "longitude_deg": 5.275693347142145,
      "height_km": 574.5039791250581,
      "semi_major_axis_km": 6950.189486194823,
      "eccentricity": 0.00029748,
      "inclination_deg": 70.0009,
      "raan_deg": 213.1148,
      "arg_perigee_deg": 269.3351,
      "mean_anomaly_deg": 90.7467,
      "mean_motion_rev_day": 14.98331101
    },
    {
      "epoch": "2026-03-30T12:34:28.990560Z",
      "apogee_km": 574.0901927446776,
      "perigee_km": 570.0287759270923,
      "latitude_deg": -3.865958408223509e-05,
      "longitude_deg": -164.59865818172963,
      "height_km": 574.5542296726921,
      "semi_major_axis_km": 6950.196484335885,
      "eccentricity": 0.00029218,
      "inclination_deg": 70.001,
      "raan_deg": 211.9366,
      "arg_perigee_deg": 268.1012,
      "mean_anomaly_deg": 91.9812,
      "mean_motion_rev_day": 14.98328838
    },
    {
      "epoch": "2026-03-30T17:22:53.138496Z",
      "apogee_km": 574.149688338629,
      "perigee_km": 569.9676166106219,
      "latitude_deg": -2.8785164500119062e-05,
      "longitude_deg": 122.59852475066869,
      "height_km": 574.5158592501103,
      "semi_major_axis_km": 6950.195652474625,
      "eccentricity": 0.00030086,
      "inclination_deg": 70.001,
      "raan_deg": 211.4318,
      "arg_perigee_deg": 269.1871,
      "mean_anomaly_deg": 90.8943,
      "mean_motion_rev_day": 14.98329107
    },
    {
      "epoch": "2026-04-01T14:14:38.983200Z",
      "apogee_km": 574.1831169367097,
      "perigee_km": 569.9337674433546,
      "latitude_deg": 1.149501688138979e-06,
      "longitude_deg": 163.10147139716423,
      "height_km": 574.5671034093676,
      "semi_major_axis_km": 6950.195442190032,
      "eccentricity": 0.0003057,
      "inclination_deg": 70.0006,
      "raan_deg": 206.7182,
      "arg_perigee_deg": 267.8125,
      "mean_anomaly_deg": 92.2684,
      "mean_motion_rev_day": 14.98329175
    },
    {
      "epoch": "2026-04-02T17:28:54.905664Z",
      "apogee_km": 574.2221135518157,
      "perigee_km": 569.8294716636328,
      "latitude_deg": -1.370361216861862e-05,
      "longitude_deg": 110.55530852988097,
      "height_km": 574.5311141672124,
      "semi_major_axis_km": 6950.162792607724,
      "eccentricity": 0.00031601,
      "inclination_deg": 70.0,
      "raan_deg": 203.857,
      "arg_perigee_deg": 267.9729,
      "mean_anomaly_deg": 92.1068,
      "mean_motion_rev_day": 14.98339733
    },
    {
      "epoch": "2026-04-03T17:30:56.087712Z",
      "apogee_km": 574.1789284682454,
      "perigee_km": 569.8990101063582,
      "latitude_deg": -2.9988927689523827e-05,
      "longitude_deg": 106.53855015736342,
      "height_km": 574.5196018074274,
      "semi_major_axis_km": 6950.175969287302,
      "eccentricity": 0.0003079,
      "inclination_deg": 70.0007,
      "raan_deg": 201.3322,
      "arg_perigee_deg": 268.5799,
      "mean_anomaly_deg": 91.5007,
      "mean_motion_rev_day": 14.98335472
    },
    {
      "epoch": "2026-04-04T15:56:49.655904Z",
      "apogee_km": 574.1682392283074,
      "perigee_km": 569.9730938807761,
      "latitude_deg": -6.282501325265776e-05,
      "longitude_deg": 126.78870593160181,
      "height_km": 574.6054670888212,
      "semi_major_axis_km": 6950.207666554542,
      "eccentricity": 0.0003018,
      "inclination_deg": 70.0015,
      "raan_deg": 198.9768,
      "arg_perigee_deg": 267.0703,
      "mean_anomaly_deg": 93.011,
      "mean_motion_rev_day": 14.98325222
    },
    {
      "epoch": "2026-04-05T14:22:43.103136Z",
      "apogee_km": 574.1141050357965,
      "perigee_km": 570.0537859594369,
      "latitude_deg": 4.3533414040257854e-05,
      "longitude_deg": 147.03881672701294,
      "height_km": 574.5853174702108,
      "semi_major_axis_km": 6950.220945497616,
      "eccentricity": 0.0002921,
      "inclination_deg": 70.0015,
      "raan_deg": 196.6208,
      "arg_perigee_deg": 267.9141,
      "mean_anomaly_deg": 92.1684,
      "mean_motion_rev_day": 14.98320928
    }
  ]
}